*******************************************************************************
 Revised: April 12, 2021         Uranus Barycenter                            7
 
 Dynamical point:
 ---------------
 The location of the center-of-mass of the Uranus system. The point about 
 which Uranus and its satellites revolve. See 799 for Uranus center.
*******************************************************************************


*******************************************************************************
Ephemeris / WWW_USER Mon Jun 16 07:54:12 2025 Pasadena, USA      / Horizons
*******************************************************************************
Target body name: Uranus Barycenter (7)           {source: DE441}
Center body name: Solar System Barycenter (0)     {source: DE441}
Center-site name: BODY CENTER
*******************************************************************************
Start time      : A.D. 2024-Jan-01 00:00:00.0000 TDB
Stop  time      : A.D. 2024-Mar-01 00:00:00.0000 TDB
Step-size       : 1440 minutes
*******************************************************************************
Center geodetic : 0.0, 0.0, 0.0                   {E-lon(deg),Lat(deg),Alt(km)}
Center cylindric: 0.0, 0.0, 0.0                   {E-lon(deg),Dxy(km),Dz(km)}
Center radii    : (undefined)
Keplerian GM    : 1.3287313590898503E+11 km^3/s^2
Output units    : KM-S, deg, Julian Day Number (Tp)
Calendar mode   : Mixed Julian/Gregorian
Output type     : GEOMETRIC osculating elements
Output format   : 10
Reference frame : Ecliptic of J2000.0
*******************************************************************************
            JDTDB,            Calendar Date (TDB),                     EC,                     QR,                     IN,                     OM,                      W,                     Tp,                      N,                     MA,                     TA,                      A,                     AD,                     PR,
**************************************************************************************************************************************************************************************************************************************************************************************************************************************************
$$SOE
2460310.500000000, A.D. 2024-Jan-01 00:00:00.0000,  4.727429377263777E-02,  2.734764968063145E+09,  7.721166069159381E-01,  7.400380410678983E+01,  9.711742199014961E+01,  2.470116485816799E+06,  1.358041488367289E-07,  2.449416766444929E+02,  2.401598026253403E+02,  2.870464132738022E+09,  3.006163297412900E+09,  2.650876302997278E+09,
2460311.500000000, A.D. 2024-Jan-02 00:00:00.0000,  4.727429941815898E-02,  2.734764943373775E+09,  7.721165655766098E-01,  7.400380539112635E+01,  9.711742174417068E+01,  2.470116485814143E+06,  1.358041494686900E-07,  2.449534096187474E+02,  2.401710272505306E+02,  2.870464123832936E+09,  3.006163304292097E+09,  2.650876290661495E+09,
2460312.500000000, A.D. 2024-Jan-03 00:00:00.0000,  4.727430502728106E-02,  2.734764919198439E+09,  7.721165242071257E-01,  7.400380667569323E+01,  9.711742131551749E+01,  2.470116485797755E+06,  1.358041500701444E-07,  2.449651427800789E+02,  2.401822522428905E+02,  2.870464115357724E+09,  3.006163311517009E+09,  2.650876278921195E+09,
2460313.500000000, A.D. 2024-Jan-04 00:00:00.0000,  4.727431059959984E-02,  2.734764895538772E+09,  7.721164828077328E-01,  7.400380796048174E+01,  9.711742070420982E+01,  2.470116485767642E+06,  1.358041506410569E-07,  2.449768761284246E+02,  2.401934776024354E+02,  2.870464107312885E+09,  3.006163319086998E+09,  2.650876267777071E+09,
2460314.500000000, A.D. 2024-Jan-05 00:00:00.0000,  4.727431613471196E-02,  2.734764872396400E+09,  7.721164413787179E-01,  7.400380924548199E+01,  9.711741991027294E+01,  2.470116485723812E+06,  1.358041511813927E-07,  2.449886096637172E+02,  2.402047033291759E+02,  2.870464099698908E+09,  3.006163327001416E+09,  2.650876257229798E+09,
2460315.500000000, A.D. 2024-Jan-06 00:00:00.0000,  4.727432163221540E-02,  2.734764849772938E+09,  7.721163999203351E-01,  7.400381053068534E+01,  9.711741893373308E+01,  2.470116485666272E+06,  1.358041516911174E-07,  2.450003433858873E+02,  2.402159294231206E+02,  2.870464092516277E+09,  3.006163335259616E+09,  2.650876247280050E+09,
2460316.500000000, A.D. 2024-Jan-07 00:00:00.0000,  4.727432709170763E-02,  2.734764827669996E+09,  7.721163584328441E-01,  7.400381181608249E+01,  9.711741777461904E+01,  2.470116485595030E+06,  1.358041521701972E-07,  2.450120772948631E+02,  2.402271558842763E+02,  2.870464085765472E+09,  3.006163343860948E+09,  2.650876237928487E+09,
2460317.500000000, A.D. 2024-Jan-08 00:00:00.0000,  4.727433251278713E-02,  2.734764806089175E+09,  7.721163169165163E-01,  7.400381310166436E+01,  9.711741643296270E+01,  2.470116485510094E+06,  1.358041526185985E-07,  2.450238113905700E+02,  2.402383827126463E+02,  2.870464079446962E+09,  3.006163352804749E+09,  2.650876229175762E+09,
2460318.500000000, A.D. 2024-Jan-09 00:00:00.0000,  4.727433789505341E-02,  2.734764785032063E+09,  7.721162753716083E-01,  7.400381438742244E+01,  9.711741490879945E+01,  2.470116485411473E+06,  1.358041530362888E-07,  2.450355456729287E+02,  2.402496099082298E+02,  2.870464073561206E+09,  3.006163362090350E+09,  2.650876221022511E+09,
2460319.500000000, A.D. 2024-Jan-10 00:00:00.0000,  4.727434323810646E-02,  2.734764764500239E+09,  7.721162337983916E-01,  7.400381567334701E+01,  9.711741320216831E+01,  2.470116485299176E+06,  1.358041534232359E-07,  2.450472801418578E+02,  2.402608374710239E+02,  2.870464068108659E+09,  3.006163371717079E+09,  2.650876213469363E+09,
2460320.500000000, A.D. 2024-Jan-11 00:00:00.0000,  4.727434854154552E-02,  2.734764744495282E+09,  7.721161921971158E-01,  7.400381695942967E+01,  9.711741131310886E+01,  2.470116485173210E+06,  1.358041537794081E-07,  2.450590147972736E+02,  2.402720654010234E+02,  2.870464063089768E+09,  3.006163381684255E+09,  2.650876206516937E+09,
2460321.500000000, A.D. 2024-Jan-12 00:00:00.0000,  4.727435380497241E-02,  2.734764725018751E+09,  7.721161505680478E-01,  7.400381824566134E+01,  9.711740924166531E+01,  2.470116485033585E+06,  1.358041541047741E-07,  2.450707496390887E+02,  2.402832936982194E+02,  2.870464058504972E+09,  3.006163391991194E+09,  2.650876200165842E+09,
2460322.500000000, A.D. 2024-Jan-13 00:00:00.0000,  4.727435902798861E-02,  2.734764706072207E+09,  7.721161089114528E-01,  7.400381953203286E+01,  9.711740698788253E+01,  2.470116484880311E+06,  1.358041543993030E-07,  2.450824846672147E+02,  2.402945223626023E+02,  2.870464054354708E+09,  3.006163402637208E+09,  2.650876194416682E+09,
2460323.500000000, A.D. 2024-Jan-14 00:00:00.0000,  4.727436421019590E-02,  2.734764687657191E+09,  7.721160672275936E-01,  7.400382081853559E+01,  9.711740455181247E+01,  2.470116484713397E+06,  1.358041546629653E-07,  2.450942198815558E+02,  2.403057513941551E+02,  2.870464050639391E+09,  3.006163413621592E+09,  2.650876189270035E+09,
2460324.500000000, A.D. 2024-Jan-15 00:00:00.0000,  4.727436935119651E-02,  2.734764669775245E+09,  7.721160255167125E-01,  7.400382210516103E+01,  9.711740193350509E+01,  2.470116484532851E+06,  1.358041548957309E-07,  2.451059552820177E+02,  2.403169807928622E+02,  2.870464047359446E+09,  3.006163424943647E+09,  2.650876184726487E+09,
2460325.500000000, A.D. 2024-Jan-16 00:00:00.0000,  4.727437445059485E-02,  2.734764652427895E+09,  7.721159837790875E-01,  7.400382339189937E+01,  9.711739913301759E+01,  2.470116484338685E+06,  1.358041550975710E-07,  2.451176908685004E+02,  2.403282105587027E+02,  2.870464044515279E+09,  3.006163436602663E+09,  2.650876180786600E+09,
2460326.500000000, A.D. 2024-Jan-17 00:00:00.0000,  4.727437950799353E-02,  2.734764635616664E+09,  7.721159420149737E-01,  7.400382467874282E+01,  9.711739615040567E+01,  2.470116484130908E+06,  1.358041552684568E-07,  2.451294266409029E+02,  2.403394406916546E+02,  2.870464042107293E+09,  3.006163448597922E+09,  2.650876177450934E+09,
2460327.500000000, A.D. 2024-Jan-18 00:00:00.0000,  4.727438452299808E-02,  2.734764619343058E+09,  7.721159002246248E-01,  7.400382596568218E+01,  9.711739298573184E+01,  2.470116483909531E+06,  1.358041554083607E-07,  2.451411625991192E+02,  2.403506711916908E+02,  2.870464040135880E+09,  3.006163460928702E+09,  2.650876174720031E+09,
2460328.500000000, A.D. 2024-Jan-19 00:00:00.0000,  4.727438949521239E-02,  2.734764603608588E+09,  7.721158584083054E-01,  7.400382725270858E+01,  9.711738963905877E+01,  2.470116483674563E+06,  1.358041555172548E-07,  2.451528987430424E+02,  2.403619020587836E+02,  2.870464038601432E+09,  3.006163473594277E+09,  2.650876172594436E+09,
2460329.500000000, A.D. 2024-Jan-20 00:00:00.0000,  4.727439442424265E-02,  2.734764588414742E+09,  7.721158165662667E-01,  7.400382853981340E+01,  9.711738611045342E+01,  2.470116483426016E+06,  1.358041555951125E-07,  2.451646350725609E+02,  2.403731332929009E+02,  2.870464037504325E+09,  3.006163486593909E+09,  2.650876171074667E+09,
2460330.500000000, A.D. 2024-Jan-21 00:00:00.0000,  4.727439930969499E-02,  2.734764573763007E+09,  7.721157746987685E-01,  7.400382982698852E+01,  9.711738239998449E+01,  2.470116483163901E+06,  1.358041556419071E-07,  2.451763715875611E+02,  2.403843648940081E+02,  2.870464036844934E+09,  3.006163499926860E+09,  2.650876170161243E+09,
2460331.500000000, A.D. 2024-Jan-22 00:00:00.0000,  4.727440415117621E-02,  2.734764559654856E+09,  7.721157328060776E-01,  7.400383111422425E+01,  9.711737850772649E+01,  2.470116482888229E+06,  1.358041556576131E-07,  2.451881082879247E+02,  2.403955968620666E+02,  2.870464036623617E+09,  3.006163513592379E+09,  2.650876169854665E+09,
